"province";"city";"branch";"type";"manager";"latitude";"longitute";"address";"mapurl"
"Eastern Cape";"Cofimvaba-Cofimvaba";"Cofimvaba";"Boxer";"Unknown";"-31,999677";"27,577735";"Market Street, Cofimvaba 5380";"https://goo.gl/pk6V9H"
"Eastern Cape";"East London-East London CBD";"East London CBD";"Normal";"Unknown";"-33,0163579";"27,903219";"Shop 1, 3-5 Gladstone Street, East London, 5200, EC";"https://goo.gl/maps/fsz5Amf9mQS2"
"Eastern Cape";"East London-Gillwell ";"Gillwell ";"Normal";"Unknown";"-33,0201165";"27,9018037";"Shop no LG37, Gillwell Shopping Centre, 4 Fleet St, East London, 5200, EC";"https://goo.gl/maps/rq5winTein22"
"Eastern Cape";"East London-Mdantsane City";"Mdantsane City";"Normal";"Unknown";"-32,924632";"27,741605";"Shop no 60, Mdantsane City, Cnr Bilies Toad & Qumza highigh, Mdantsane, 5219, EC";"https://goo.gl/maps/3szJo7oqdDF2"
"Eastern Cape";"King Williams Town-King Williams Town";"King Williams Town";"Normal";"Unknown";"-32,875568";"27,387605";"Shop 1, Bank Street, King Williams Town, EC";"https://goo.gl/maps/XNaJXkHvcAA2"
"Eastern Cape";"Lusikisiki-Lusikisiki";"Lusikisiki";"Boxer";"Unknown";"-31,3663423";"29,576097";"44 main Street, Lusikisiki, 4820";"https://goo.gl/KXUDKA"
"Eastern Cape";"Matatiele-Matatiele";"Matatiele";"Boxer";"Unknown";"-30,3414485";"28,8047933";"Boxer 2 Stand 742 Cnr Station & Market Street, Matatiele, 4730";"https://goo.gl/E7o4Rb"
"Eastern Cape";"Mthatha-Mthatha";"Mthatha";"Boxer";"Unknown";"-31,5884132";"28,7864171";"Cnr York & Elliot Street, Shop 3 Mthatha";"https://goo.gl/BM2CaL"
"Eastern Cape";"Port Elizabeth-Kenako Mall";"Kenako Mall";"Normal";"Unknown";"-33,88483";"25,563995";"Shop 22e, Kenako Retail Centre, Cnr Uitenhage and Spondo Rd, New Brighton, Port Elizabeth, EC";"https://goo.gl/maps/zYEbCQoBGKP2"
"Eastern Cape";"Port Elizabeth-Port Elizabeth CBD";"Port Elizabeth CBD";"Normal";"Unknown";"-33,95732";"25,618067";"186 Goven Mbheki Ave, Central, Port Elizabeth, 6001, EC";"https://goo.gl/maps/ccHDa3G7j2B2"
"Eastern Cape";"Queenstown-Queenstown";"Queenstown";"Normal";"Unknown";"-31,896402";"26,870983";"The Hexagon, Cnr Hexagon Circle & Bowker Street, Queenstown, 5319, EC";"https://goo.gl/maps/zUJL7znWNVL2"
"Eastern Cape";"Uitenhage-Uitenhage";"Uitenhage";"Normal";"Unknown";"-33,767961";"25,402053";"72 Caledon Street, Uitenhage, 6229, EC";"https://goo.gl/maps/7QAxuhYnWzS2"
"Free State";"Bloemfontein-Bloem Arcade Walk";"Bloem Arcade Walk";"Normal";"Unknown";"-29,113532";"26,214581";"Shop 20, Arcade Walk-Through, Corner West Burger & Elizabeth Street, Bloemfontein, 9301, FS";"https://goo.gl/ZsbTxz"
"Free State";"Bloemfontein-Bloemfontein";"Bloemfontein";"Boxer";"Unknown";"-29,1421573";"26,2523583";"Cnr Heatherdale Rd & Sonneblom St, Shop 8, Twin City Heidedal Shopping Centre, Heidedal, Bloemfontein, 9301";"https://goo.gl/b4Pvxf"
"Free State";"Bloemfontein-Botshabelo";"Botshabelo";"Normal";"Unknown";"-29,2312252";"26,7052026";"Shop 19, RCM Shopping Complex, Strand St, Botshabelo, 9301, FS";"https://goo.gl/maps/GBhmm15vW7H2"
"Free State";"Bloemfontein-Rocklands Centre";"Rocklands Centre";"Normal";"Unknown";"-29,181777";"26,234924";"Shop 56 Rocklands Centre, ERF 53631, Cnr Moshoeshoe & Motlohi Street, Bloemfontein, 9301, Free State";"https://goo.gl/maps/dgAePMHgjs42"
"Free State";"Qwa Qwa-Qwa Qwa";"Qwa Qwa";"Normal";"Unknown";"-29,181471";"26,233923";"Shop No 3A, Mandala Park, 712 Public Road, Phuthaditjhaba 9869, Witsieshoek, Qwa-Qwa";"https://goo.gl/ZsbTxz"
"Free State";"Welkom-Goldfields Mall";"Goldfields Mall";"Normal";"Unknown";"-27,97752";"26,73542";"Shop xx, Goldfields Mall, Stateway & Buiten Street, Welkom, 9460, FS";"https://goo.gl/maps/jSk1YNt99Er"
"Free State";"Welkom-Welkom";"Welkom";"Normal";"Unknown";"-27,983439";"26,735541";"26 Bok Street, Welkom, 9460, FS";"https://goo.gl/maps/rMip21SeLky"
"Free State";"Welkom-Welkom Satateway";"Welkom Satateway";"Boxer";"Unknown";"-27,983411";"26,735499";"Corner Bok Street & Satateway, Welkom";"https://goo.gl/maps/uEob6291RP62"
"Gauteng";"Alberton-Alberton";"Alberton";"Normal";"Unknown";"-26,2679576";"28,1110621";"Village Square Shopping Centre, 46 Voortrekker Road, Alberton Boulevard, New Redruth, Alberton, 1449, GP";"https://goo.gl/maps/uzgLGwswv4P2"
"Gauteng";"Benoni-Benoni";"Benoni";"Boxer";"Unknown";"-26,1525778";"28,4157246";"Boxer Store, Corner Eiselen and Hlakwana Street, Daveyton, 1520";"https://goo.gl/HW7kSm"
"Gauteng";"Benoni-Daveyton Shopping Centre";"Daveyton Shopping Centre";"Normal";"Unknown";"-26,15344";"28,418484";"Shop 17D, Daveyton Shopping Centre, Eiselen Street, Daveyton, 1520, GP";"https://goo.gl/maps/bcnhhvUZZ2Q2"
"Gauteng";"Benoni-Lakeside Mall";"Lakeside Mall";"Normal";"Unknown";"-26,1847308";"28,3155939";"Shop 5&6, Tom Jones St, Benoni, 1501, GP";"https://goo.gl/maps/3GYUEmRzES42"
"Gauteng";"Brakpan-Brakpan (Carnival)";"Brakpan (Carnival)";"Normal";"Unknown";"-26,2517774";"28,3181861";"Shop 72, Cnr Airport & Heidelberg Rd, Dalpark Ext 5, Brakpan, 1552, GP";"https://goo.gl/maps/Q9uangAms1o"
"Gauteng";"Brakpan-Tsakane Mall";"Tsakane Mall";"Normal";"Unknown";"-26,35275";"28,37267";"Shop 60b, Tsakane Mall, Modjadji St, Tsakane, Brakpan, 1548, GP";"https://goo.gl/maps/x5Yx3gqs1r22"
"Gauteng";"Carletonville-Gateway Mall";"Gateway Mall";"Normal";"Unknown";"-26,3541259";"27,397109";"Shop xxx, Annan Rd, Gateway Mall, Carletonville, GP";"https://goo.gl/maps/624QvTBQVht"
"Gauteng";"Embalenhle-Embalenhle Mall";"Embalenhle Mall";"Normal";"Unknown";"-26,536205";"29,077362";"Shop no 49, Cnr Old Provincial & Embalenhle road, Embalenhle, 2285, GP";"https://goo.gl/maps/irqNKJQjbhT2"
"Gauteng";"Hammanskraal-Jubilee Mall";"Jubilee Mall";"Normal";"Unknown";"-25,405671";"28,2700271";"Cnr Jubilee and Harry Gwala Road, Hammanskraal, 0407, GP";"https://goo.gl/maps/HvkuPu9XnLA2"
"Gauteng";"Joburg-Alexandra";"Alexandra";"Boxer";"Unknown";"-26,1058627";"28,0863175";"CNR 1st & ChadwickAvenue Alexandra Gauteng";"https://goo.gl/Z2hDmS"
"Gauteng";"Joburg-Alexandra Plaza";"Alexandra Plaza";"Normal";"Unknown";"-26,1064428";"28,0869353";"Shop xxx, Alexandra Plaza, 1st Street, Sandton 2090, GP";"https://goo.gl/maps/jqUKyGxUuT82"
"Gauteng";"Joburg-Bridge Mall (Noord)";"Bridge Mall (Noord)";"Normal";"Unknown";"-26,197968";"28,045138";"Shop G16, The Bridge Shopping Centre, Cnr King George, Noord and Wanderes Streets, Johannesburg";"https://goo.gl/maps/GYHBwfviv8q"
"Gauteng";"Joburg-End Street";"End Street";"Normal";"Unknown";"-26,19797";"28,05318";"120 End Street Johannesburg, 2001, GP";"https://goo.gl/maps/m4vHsj2f52v"
"Gauteng";"Joburg-Germiston";"Germiston";"Normal";"Unknown";"-26,21412";"28,16652";"Shop 6n, Entrance 1, Golden Walk Shopping Centre, Germiston, 1400, GP";"https://goo.gl/maps/5LfbiYXCX1D2"
"Gauteng";"Joburg-Key West ";"Key West ";"Normal";"Unknown";"-26,087642";"27,7816658";"6 Paardekraal Drive, Krugersdorp, 1739, GP";"https://goo.gl/maps/Pc6ozgrRTB12"
"Gauteng";"Joburg-Orange Farm";"Orange Farm";"Normal";"Unknown";"-26,47079";"27,8704";"Shop U39, Eyethu Orange Farm Mall, Orange Farm Ext 4, 1841, Joburg, GP";"https://goo.gl/maps/tiFRxrY3AtK2"
"Gauteng";"Joburg-Park Town";"Park Town";"Normal";"Unknown";"-26,173814";"28,042";"Hollard Building, Federation Road, Parktown, JHB";"https://goo.gl/maps/ve5TChA7uxr"
"Gauteng";"Joburg-Randburg City";"Randburg City";"Normal";"Unknown";"-26,0923538";"28,0018496";"Shop 31, Oak Ave, Randburg, Joburg, 2194, GP";"https://goo.gl/maps/KvgU73Ws3RL2"
"Gauteng";"Joburg-Rissik Street ";"Rissik Street";"Normal";"Unknown";"-26,205951";"28,042152";"Surrey House Building, Corner Fox and Rissik Street, Joburg, 2107, GP";"https://goo.gl/maps/ofwuoBw2KPy"
"Gauteng";"Joburg-Southgate Mall";"Southgate Mall";"Normal";"Unknown";"-26,266602";"27,982809";"Rifle Range Rd, Southgate Mall, Mondeor, Joburg, 2091, GP";"https://goo.gl/maps/EXpknXDTsmq"
"Gauteng";"Katlehong-Letsoho Centre";"Letsoho Centre";"Normal";"Unknown";"-26,327234";"28,1457046";"Letsoho centre, Cnr Hospital Rd & Kgotso St, Katlehong, 1431, GP";"https://goo.gl/maps/kZMMAN7guXD2"
"Gauteng";"Katlehong-Sontonga Mall";"Sontonga Mall";"Normal";"Unknown";"-26,3754486";"28,1621625";"Shop 11, CNR Sontogo Ave & Katlehong Str, Katlehong, Joburg, GP";"https://goo.gl/maps/MpHjzk3wAUv"
"Gauteng";"Kempton Park-Kempton Square";"Kempton Square";"Normal";"Unknown";"-26,105052";"28,2294434";"11 Voortrekker street, Kempton Park, 1619, GP";"https://goo.gl/maps/JAgkmPmddUn"
"Gauteng";"Krugersdorp-Kagiso Mall";"Kagiso Mall";"Normal";"Unknown";"-26,1675325";"27,7786109";"Shop No 34, Randfontein Road, Corner Kagiso Road, Kagiso, 1754, GP";"https://goo.gl/maps/e9fBR2Hdtzs"
"Gauteng";"Midrand-Olievenhout Plaza";"Olievenhout Plaza";"Normal";"Unknown";"-25,924291";"28,0939833";"Cnr R55 and Jakalasi, Olievenhout Plaza, Pretoria";"https://goo.gl/v8QLSt"
"Gauteng";"Pretoria-Atlyn Mall";"Atlyn Mall";"Normal";"Unknown";"-25,770473";"28,0887138";"420 Phatedu Str, Atteridgeville, Pretoria, 0008, GP";"https://goo.gl/maps/iL2GKpz52jt"
"Gauteng";"Pretoria-Bloed Street";"Bloed Street";"Normal";"Unknown";"-25,7406042";"28,1919993";"Shop 003a, Scott's Corner, Cnr Bloed & Van Der Walt Street, Pretoria CBD";"https://goo.gl/maps/4PhrwemNyGS2"
"Gauteng";"Pretoria-Garankuwa";"Garankuwa";"Normal";"Unknown";"-25,5911808";"27,9915226";"Ga-Rankuwa City Centre, Mangope Rd, Ga-Rankuwa, 0208, GP";"https://goo.gl/maps/UpAs2vZ7Pc72"
"Gauteng";"Pretoria-Soshanguve Crossing Mall";"Soshanguve Crossing Mall";"Normal";"Unknown";"-25,550165";"28,0875437";"Shop 36A, M 43 Aubrey Matlakala St, Soshanguve, 0152, GP";"https://goo.gl/maps/RPCaQVZ4HrM2"
"Gauteng";"Pretoria-Wonderpark";"Wonderpark";"Normal";"Unknown";"-25,6723611";"28,1096835";"Shop 207D, Wonderpark Shopping Centre, Cnr Heinrich Avenue & Old Brits Road, Karenpark";"https://goo.gl/maps/vPWj7pQiCgC2"
"Gauteng";"Roodepoort-Cosmo City";"Cosmo City";"Normal";"Unknown";"-26,0212095";"27,9268707";"Corner South Africa Drive and Central African Republic Avenue, Cosmo City, Roodepoort, 2188, GP";"https://goo.gl/enXY6r"
"Gauteng";"Roodepoort-Westgate Mall";"Westgate Mall";"Normal";"Unknown";"-26,134118";"27,857203";"120 Ontdekkers Rd, Roodepoort, 1710, Joburg, GP";"https://goo.gl/maps/U976CxTT1oT2"
"Gauteng";"Sandton-Randfontein Station Mall";"Randfontein Station Mall";"Normal";"Unknown";"-26,181583";"27,698626";"Shop xxx, Brury St, Randfontein, 1759, GP";"https://goo.gl/maps/cmZ11giMA2t"
"Gauteng";"Sebokeng-Thabong Mall";"Thabong Mall";"Normal";"Unknown";"-26,590601";"27,846765";"Shop XXX, 65565 Moshoeshoe St, Sebokeng, 1983, GP";"https://goo.gl/maps/CAdbybAvjzE2"
"Gauteng";"Soweto-Bara Mall";"Bara Mall";"Normal";"Unknown";"-26,2589793";"27,929351";"Shop xxx, Chris Hani Rd, Diepkloop, Soweto, GP";"https://goo.gl/maps/YEoNuGfP9v12"
"Gauteng";"Soweto-Jabulani Mall";"Jabulani Mall";"Normal";"Unknown";"-26,2498388";"27,8573071";"Shop 69, Jabulani Mall, Cnr Koma & Bolani Street, Jabulani, Soweto, GP";"https://goo.gl/maps/YSRhFPxceso"
"Gauteng";"Soweto-Maponya Mall";"Maponya Mall";"Normal";"Unknown";"-26,258338";"27,901224";"Shop No 40, G floor, Maponya Mall, Chris Hani Rd, Klipspruit Ext 5, Soweto, 1809, GP";"https://goo.gl/maps/NNKhWat3YAv"
"Gauteng";"Soweto-Meadow Point";"Meadow Point";"Normal";"Unknown";"-26,222397";"27,899376";"Shop 26, Meadowlands Mall, Cnr Heckroodt Circle & Odendaal Road / Marsh Street, Meadowlands, Soweto, 1852";"https://goo.gl/maps/94GsY76fssF2"
"Gauteng";"Soweto-Protea Gardens";"Protea Gardens";"Normal";"Unknown";"-26,287047";"27,847912";"Shop no. 18, Protea Gardens Mall, Cnr Old Potchefstroom & Alekhine, Soweto, 1818, GP ";"https://goo.gl/maps/UAqTg4SkQBF2"
"Gauteng";"Soweto-Protea Glen";"Protea Glen";"Normal";"Unknown";"-26,2774094";"27,8119631";"Cnr of R558 & Protea Blvd, Protea Glen, Soweto, 1819, GP ";"https://goo.gl/Gr9zeH"
"Gauteng";"Soweto-Wild Chestnut";"Wild Chestnut";"Boxer";"Unknown";"-26,2770182";"27,8198067";"Cnr Protea Boulevard & Wild Chestnut street Protea Glen Soweto";"https://goo.gl/vHNw8P"
"Gauteng";"Springs-Springs";"Springs";"Normal";"Unknown";"-26,254734";"28,440331";"Cnr 5th Avenue and 4th Street, Springs, 1560, GP";"https://goo.gl/maps/X5bVF4fnXe52"
"Gauteng";"Tembisa-Phumulani Mall";"Phumulani Mall";"Normal";"Unknown";"-25,975147";"28,241573";"Shop No 24, Olifantsfontein Road, Tembisa, Joburg, 1632, GP";"https://goo.gl/maps/qptXL5kGCkA2"
"Gauteng";"Tshepiso-Tshepiso";"Tshepiso";"Boxer";"Unknown";"-26,6618571";"27,8489192";"Erf 2413, Noble Boulevardt, Tshepiso, Sharpville.";"https://goo.gl/LHY3Ax"
"Gauteng";"Vanderbijlpark-Vaalgate Mall";"Vaalgate Mall";"Normal";"Unknown";"-26,6986853";"27,8371115";"Shop xxx, 880, D F Malan St, Vanderbijlpark, 1900, GP";"https://goo.gl/maps/Evcv6RzZNsu"
"Gauteng";"Vereeniging-Marks Park";"Marks Park";"Normal";"Unknown";"-26,676565";"27,930999";"30 Voortrekker St, Vereeniging, 1935, GP";"https://goo.gl/maps/KiDB9Bo4xqr"
"Gauteng";"Vereeniging-Palm Springs Mall";"Palm Springs Mall";"Normal";"Unknown";"-26,496949";"27,846333";"Shop No 5, Cnr Welgevonden & Falcon St, Evaton, 1805, GP";"https://goo.gl/maps/ngNHiA9zC3m"
"Kwa-Zulu Natal";"Butterworth-Butterworth";"Butterworth";"Normal";"Unknown";"-29,8504737";"31,0078738";"Shop 34, ERF 501, Corner N2 & Road Number DR8327, Fingoland Mall, Butterworth, 4960, KZN";"https://goo.gl/WqKimu"
"Kwa-Zulu Natal";"Dundee-Dundee";"Dundee";"Normal";"Unknown";"-28,161936";"30,2257722";"64 Union Street, Dundee, 3000, KZN";"https://goo.gl/hWyTD4"
"Kwa-Zulu Natal";"Durban-Berea Centre";"Berea Centre";"Normal";"Unknown";"-29,85632";"31,003663";"Shop xxx, Berea Shopping Cantre, 249 King Dinizulu Road, Berea, Durban";"https://goo.gl/maps/vre9pBr7Kyu"
"Kwa-Zulu Natal";"Durban-Durban Joe Slovo";"Durban Joe Slovo";"Normal";"Unknown";"-29,8552032";"31,0190931";"140 Joe Slovo Drive, Durban, 4001, KZN";"https://goo.gl/4bzZ92"
"Kwa-Zulu Natal";"Durban-Tongaat";"Tongaat";"Normal";"Unknown";"-29,571158";"31,11796";"5 Watson Highway, Tongaat, 4399, KZN";"https://goo.gl/maps/6Ws9ddUpwAS2"
"Kwa-Zulu Natal";"Folweni-Folweni";"Folweni";"Boxer";"Unknown";"-29,985454";"30,8183073";"Sbu Magwanyane Drive & Ndabesitha Road Folweni, Kwa-Zulu Natal";"https://goo.gl/J7TJRM"
"Kwa-Zulu Natal";"Gamalakhe-Gamalakhe";"Gamalakhe";"Boxer";"Unknown";"-30,8044013";"30,3335677";"Main Road Gamalakhe";"https://goo.gl/s3wPXD"
"Kwa-Zulu Natal";"Greytown-Greytown";"Greytown";"Normal";"Unknown";"-29,062481";"30,592126";"Shop 21, Mavundla Square, Durban Street, Greytown, xxx, KZN";"https://goo.gl/maps/AoSbQSJr6Dx"
"Kwa-Zulu Natal";"Ladysmith-Ladysmith";"Ladysmith";"Normal";"Unknown";"-28,557342";"29,780329";"Shop 26, The Oval shopping centre, Corner Keate & Alexandra Street, Ladysmith, KZN";"https://goo.gl/maps/bi4qUPYF79P2"
"Kwa-Zulu Natal";"Mandini-Mandini Rencken Spar";"Mandini Rencken Spar";"Normal";"Unknown";"-29,14596";"31,403131";"Shop 31, Renckens Superspar Complex, Old Main Rd, Mandini, 4490, KZN";"https://goo.gl/maps/K4tUKXXkYwr"
"Kwa-Zulu Natal";"Mtubatuba-Mtubatuba";"Mtubatuba";"Boxer";"Unknown";"-28,4140809";"32,1897564";"St Lucia Road Mtubatuba";"https://goo.gl/NRw9nv"
"Kwa-Zulu Natal";"Newcastle-Newcastle";"Newcastle";"Normal";"Unknown";"-27,755349";"29,935723";"Village Walk shopping center, Scott street, Newcastle, 2940, KZN";"https://goo.gl/maps/Yx88F5Qrp6q"
"Kwa-Zulu Natal";"Pietermaritzburg-Pietermaritzburg";"Pietermaritzburg";"Normal";"Unknown";"-29,601305";"30,378947";"Shop 10, Treasury House, 145 Chief Albert Luthuli Rd, Pietermaritzburg, 3201, KZN";"https://goo.gl/maps/3hPntLRRiDC2"
"Kwa-Zulu Natal";"Pinetown-Pine Crest";"Pine Crest";"Normal";"Unknown";"-29,811639";"30,857047";"Shop 231, 17 Kings Rd, Pine Crest centre, Pinetown, 3620, KZN";"https://goo.gl/maps/WiXoPaG97Ax"
"Kwa-Zulu Natal";"Port Shepstone-Port Shepstone";"Port Shepstone";"Normal";"Unknown";"-30,738071";"30,450147";"Shop 4, Boodhram House, lot 374, Cnr of Wooley Street & Nelson Mandela Drive, Port Shepstone, KZN";"https://goo.gl/maps/RuWG1yiN7mF2"
"Kwa-Zulu Natal";"Richards Bay-Richards Bay";"Richards Bay";"Normal";"Unknown";"-28,749123";"32,04814";"Shop 12, Taxi City, Cnr Bullion Boulevard & Krugerrand roads, Richards Bay, 3900, KZN";"https://goo.gl/maps/MZYWx9GV9Tq"
"Kwa-Zulu Natal";"Stanger-Stanger";"Stanger";"Boxer";"Unknown";"-29,3407835";"31,2925992";"34 Cato Street Stanger/ Kwa Dukuza";"https://goo.gl/1ui6KL"
"Kwa-Zulu Natal";"Sundumbili-Sundumbili";"Sundumbili";"Boxer";"Unknown";"-29,1375498";"31,3646784";"3 Nkonjane Road Sundumbili 4491";"https://goo.gl/TxcTGb"
"Kwa-Zulu Natal";"Uitval-Uitval";"Uitval";"Boxer";"Unknown";"-28,4647788";"30,1520797";"Cnr T Junction,Etholeni,Ekuvukeni P32 Road Uitval 2920";"https://goo.gl/m2VDG3"
"Kwa-Zulu Natal";"Ulundi-Ulundi";"Ulundi";"Normal";"Unknown";"-28,30127";"31,421246";"Shop 10A, King Senzangakhona Centre, Cnr King Dinzulu Highway and Princess Magogo Street, Ulundi, 3838, KZN";"https://goo.gl/maps/cxN2wDSQiEK2"
"Kwa-Zulu Natal";"Umlazi-Umlazi (Mega City)";"Umlazi (Mega City)";"Normal";"Unknown";"-29,955229";"30,939137";"Shop S3, Umlazi Mega City, 50 Griffiths Mxenge Highway, Umlazi, 4066, KZN";"https://goo.gl/maps/N7LxqhUDrmr"
"Kwa-Zulu Natal";"Umtata (Mtata)-Umtata (BT Ngebs)";"Umtata (BT Ngebs)";"Normal";"Unknown";"-31,597279";"28,785357";"Shop L137, 33 Errol Springs Ave, B T Ngebs Mall, Umtata, EC";"https://goo.gl/maps/tenhSkhRQLy"
"Kwa-Zulu Natal";"Umtata (Mtata)-Umtata (York Str)";"Umtata (York Str)";"Normal";"Unknown";"-31,588127";"28,788329";"115 York Road Umthatha, 5100, EC ";"https://goo.gl/maps/CJ5qkSnTaXK2"
"Kwa-Zulu Natal";"Umzimkhulu-Umzimkhulu";"Umzimkhulu";"Boxer";"Unknown";"-30,259917";"29,9367843";"Hollard Retail Branch Boxer Umzimkhulu, Kwa-Zulu Natal";"https://goo.gl/BJV8DP"
"Kwa-Zulu Natal";"Umzimkulu-Umzimkulu";"Umzimkulu";"Normal";"Unknown";"-30,2620583";"29,9392364";"Shop 23, Mzimkhulu Mall, Corner Bird and Main Street, Umzimkhulu, 3295";"https://goo.gl/bYnqnc"
"Kwa-Zulu Natal";"Umzinto-Umzinto";"Umzinto";"Normal";"Unknown";"-30,302943";"30,667534";"Shop No: B5b, Bhai Plaza, 334 Nelson Mandela Street, Umzinto, 4200, KZN";"https://goo.gl/maps/959erNyE8c62"
"Kwa-Zulu Natal";"Vryheid-Vryheid";"Vryheid";"Normal";"Unknown";"-27,766581";"30,800744";"Shop 24A Mason Street, Vryheid, 3100, KZN";"https://goo.gl/maps/Fm96SFsvVZC2"
"Kwa-Zulu Natal";"Durban-Clairwood";"Clairwood";"Normal";"Unknown";"-29,914153";"30,978011";"Clairwood Shopping Centre, 622 South Coast Road, Clairwood, 4052, KZN";"https://goo.gl/maps/VikrwQeGToS2"
"Kwa-Zulu Natal";"Durban-Durban CBD";"Durban CBD";"Normal";"Unknown";"-29,859156";"31,024546";"292 Cnr Dorothy Nyembe and Anton Lembede, Street, Durban, 4001, KZN";"https://goo.gl/maps/r4pXHB4NUb22"
"Kwa-Zulu Natal";"Durban-Hammarsdale";"Hammarsdale";"Normal";"Unknown";"-29,8018557";"30,6284316";"Shop XX, Hammarsdale Junction Mall, Kunene Road, Durban, 3700, KZN";"https://goo.gl/maps/SvpwJVBmsmy"
"Kwa-Zulu Natal";"Empangeni-Empangeni";"Empangeni";"Normal";"Unknown";"-28,7414779";"31,8900869";"Shop 108, Sanlam Centre, 335 Maxwell St, Empangeni, KZN";"https://goo.gl/maps/HRUeuSDYkFU2"
"Kwa-Zulu Natal";"Harding-Harding Corner";"Harding Corner";"Normal";"Unknown";"-30,572928";"29,879538";"Harding Corner Mall, Corner of Hawkins & Livingstone Road, Harding, 4680, KZN";"https://goo.gl/maps/JFrh5d1jXoq"
"Kwa-Zulu Natal";"Isipingo-Isipingo Juction";"Isipingo Juction";"Normal";"Unknown";"-29,9848639";"30,9258861";"19 Pardy Rd, Isipingo, 4133, KZN";"https://goo.gl/maps/GUa61LZE8kA2"
"Kwa-Zulu Natal";"Kokstad-Kokstad";"Kokstad";"Normal";"Unknown";"-30,5491566";"29,4252558";"43 Hope Street, Shoprite Centre, Kokstad, 4700, KZN or Shop No 03 Game Centre, 80 Main Street, Kokstad, 4700.";"https://goo.gl/maps/EnJi5wnEsHA2"
"Kwa-Zulu Natal";"Kwamashu-Bridge City Centre";"Bridge City Centre";"Normal";"Unknown";"-29,7271386";"30,9872298";"Shop U16, 14th Str, Kwamashu, KZN";"https://goo.gl/maps/8rWi8QboQzk"
"Kwa-Zulu Natal";"Umlazi-Kwamnyandu";"Kwamnyandu";"Normal";"Unknown";"-29,9717038";"30,9040032";"Shop 319, 341 Griffiths Mxenge, Umlazi, KZN";"https://goo.gl/maps/mnCFz2DqrCE2"
"Limpopo";"Bela Bela-Bela Bela";"Bela Bela";"Normal";"Unknown";"-24,884984";"28,289472";"Nr 43 (erf 491) Chris Hani drive, Meininger building, Bela Bela, LP";"https://goo.gl/v9arq5"
"Limpopo";"Bochum-Bochum";"Bochum";"Normal";"Unknown";"-23,2868099";"29,1382299";"Shop 33, Blouberg Mall, Camp Rd, Bochum, 0790, LP";"https://goo.gl/maps/gcAUazFAPUL2"
"Limpopo";"Burgersfort-Burgersfort";"Burgersfort";"Boxer";"Unknown";"-24,6740167";"30,3248472";"Main Road Burgersfort";"https://goo.gl/gxjQQx"
"Limpopo";"Burgersfort-Twin City Centre";"Twin City Centre";"Normal";"Unknown";"-24,6660364";"30,3213664";"Shop XX, Twin City Centre, Dirk Winterbach &, Kruis St, Burgersfort, 1150, ";"https://goo.gl/maps/XZfEcpVkmpq"
"Limpopo";"Elandsdoring-Moutse Mall";"Moutse Mall";"Normal";"Unknown";"-25,280713";"29,183719";"Shop No: 17, Moutse Mall, Cnr R25 Bronkhortspruit Road & R14, Denniliton, Elandsdoring, 1030, LP";"https://goo.gl/maps/H9QXA5J7okp"
"Limpopo";"Giyani-Giyani";"Giyani";"Boxer";"Unknown";"-23,3166667";"30,714478";"BA43-46 Giyani Complex ";"https://goo.gl/6QY3ve"
"Limpopo";"Giyani-Masingita Mall";"Masingita Mall";"Normal";"Unknown";"-23,3102501";"30,6924608";"Masingita Mall, Cnr. Giyani & Malamulele Main Road, Giyani-BA, Giyani, 0826, LP";"https://goo.gl/KLktCr"
"Limpopo";"Groblersdal-Groblersdal";"Groblersdal";"Normal";"Unknown";"-25,16658";"29,400131";"Shop 6, Twin City Groblersdal, Cnr Van Riebeeck Street and Pieter Avenue, Groblersdal";"https://goo.gl/maps/S8zNnunQ7kt"
"Limpopo";"Lebowakgomo-Lebowakgomo";"Lebowakgomo";"Normal";"Unknown";"-24,3116903";"29,47752";"Lepelle Crossing, R571, Lebowakgomo, 0737, LP";"https://goo.gl/maps/GbyYZ9Xcbrp"
"Limpopo";"Lephalale-Lephalale";"Lephalale";"Normal";"Unknown";"-23,68769";"27,703007";"Shop 18A, Shopping Centre, Lephalale Crossing, Lephalale, ";"https://goo.gl/maps/FQvMErvaG5m"
"Limpopo";"Makhado-Makhado";"Makhado";"Normal";"Unknown";"-23,0394607";"29,9096446";"Shop 7, 105 Burger Str, Shoprite Centre, Makhado/Louis Trichardt, 0920, LP";"https://goo.gl/maps/ZNyA8hTD9Mx"
"Limpopo";"Mokopane-Mokopane CBD";"Mokopane CBD";"Normal";"Unknown";"-24,18006";"29,010543";"Shop no 1, 52 Nelson Mandela Rd, Mokopane, 0601, LP";"https://goo.gl/maps/KuzJE8gtEv92"
"Limpopo";"Musina-Musina";"Musina";"Normal";"Unknown";"-22,337534";"30,041935";"Shop 25, Musina Mall, Corner of Smelter avenue and Great North road (N1), Musina, LP";"https://goo.gl/maps/W3QiupG3Hn42"
"Limpopo";"Polokwane-Paledi Mall";"Paledi Mall";"Normal";"Unknown";"-23,8890864";"29,7012342";"Shop No 06A, R71 Tzaneen Road, Polokwane (Mankweng), LP";"https://goo.gl/maps/dzfurngDmFL2"
"Limpopo";"Polokwane-Polokwane";"Polokwane";"Normal";"Unknown";"-23,907191";"29,452419";"Shop 72, Landdros Mare Street, Polokwane, 0783, LP";"https://goo.gl/maps/2ebZUkefyDm"
"Limpopo";"Steelpoort-PnP Building";"PnP Building";"Normal";"Unknown";"-24,731916";"30,205697";"Shop 14, PnP Building, Rodium Avenue, Steelpoort, 1133, LP";"https://goo.gl/maps/UDW4T4qgzgN2"
"Limpopo";"Tzaneen-Tsaneng Mall";"Tsaneng Mall";"Normal";"Unknown";"-23,82584";"30,161911";"Shop XX, Tsaneng Mall, 26 Danie Joubert St, Tzaneen, 0850, LP";"https://goo.gl/maps/Z9hpeXqnADG2"
"Mpumalanga";"Bushbuckridge-Bushbuckridge Complex";"Bushbuckridge Complex";"Normal";"Unknown";"-24,8340353";"31,0692253";"Shop 38 Twin City, Cnr Main & Graskop Streets, Bushbuckridge, MP";"https://goo.gl/maps/PPbMHoWuzKB2"
"Mpumalanga";"Ermelo-Ermelo";"Ermelo";"Normal";"Unknown";"-26,5194659";"29,988053";"50 De Jager Street, Ermelo, 2351, MP";"https://goo.gl/maps/Ymp5iWnrQyB2"
"Mpumalanga";"Hazyview-Hazyview";"Hazyview";"Normal";"Unknown";"-25,044428";"31,1316588";"Shop 314, Corner R536 and R40, Blue Haze Mall, Hazyview, 1242, MP";"https://goo.gl/maps/UqjTWt8ES392"
"Mpumalanga";"Nelspruit-Nelspruit";"Nelspruit";"Normal";"Unknown";"-25,47135";"30,975839";"10 Paul Kruger Street, Nelspruit, 1201, MP";"https://goo.gl/maps/cfN5HCHQZTM2"
"Mpumalanga";"Nelspruit-Somora Machela";"Somora Machela";"Boxer";"Unknown";"-25,4702558";"30,9784984";"CNR DR Somora Machela and Henshal Street Nelspruit";"https://goo.gl/rMkZW7"
"Mpumalanga";"Steelpoort-Steelpoort";"Steelpoort";"Boxer";"Unknown";"-25,0930732";"30,7779714";"Main Road R555 Steelpoort Mpumalanga";"https://goo.gl/8ffe8Q"
"Mpumalanga";"Witbank-Witbank";"Witbank";"Normal";"Unknown";"-25,875603";"29,211407";"Shop xxx, Witbank Metropolitan Centre, Eadie St & Botha Avenue, Emalahleni, 1035, MP";"https://goo.gl/maps/ZSSFsS6cnXU2"
"North West";"Brits-Brits";"Brits";"Normal";"Unknown";"-25,6361901";"27,7803752";"50 Pienaar Street, Brits, 0250, NW";"https://goo.gl/maps/HPm95mgwqLL2"
"North West";"Klerksdorp-Terminus Mall";"Terminus Mall";"Normal";"Unknown";"-26,862997";"26,663513";"Shop 14, Terminus mall, Golf St, Klerksdorp, 2570, NW";"https://goo.gl/maps/6hLC5BP1BLM2"
"North West";"Kuruman-Kuruman Mall";"Kuruman Mall";"Normal";"Unknown";"27,455745";"23,434494";"Shop 53, Kuruman Hall, 26 Livingstone Street, Kuruman, 8460, NC";"https://goo.gl/maps/QiukTw4LUbz"
"North West";"Mmabatho-Mafikeng CBD";"Mafikeng CBD";"Normal";"Unknown";"-25,8654731";"25,6442428";"299 Robinson Street, Mafikeng CBD, Mmabatho, 2790, NW";"https://goo.gl/maps/uHuxg94x54Q2"
"North West";"Mmabatho-Mafikeng Mega City";"Mafikeng Mega City";"Normal";"Unknown";"-25,8372242";"25,612031";"3139 Lucas Mangope Highway, Mmabatho, 2790, NW";"https://goo.gl/maps/JqMn9zqye3E2"
"North West";"Potchefstroom-Ikageng Shopping Centre";"Ikageng Shopping Centre";"Normal";"Unknown";"-26,7207761";"27,0699269";"42 Ikageng St, Potchefstroom, 2520, NW";"https://goo.gl/maps/Kcv5q3gAfC62"
"North West";"Potchefstroom-Potchefstroom";"Potchefstroom";"Boxer";"Unknown";"-26,71393";"27,0974913";"12 New Market Street Potchefstroom";"https://goo.gl/2QVwX7"
"North West";"Rustenburg-Rustenburg CBD";"Rustenburg CBD";"Normal";"Unknown";"-25,6686562";"27,2357447";"Fatima Bhayat St, CBD, Rustenburg, 0299, NW";"https://goo.gl/maps/HYtF4Cuj6FP2"
"North West";"Taung-Taung";"Taung";"Normal";"Unknown";"-27,561178";"24,747726";"Taung Forum Centre, Station Road, Taung, 8584, NW";"https://goo.gl/maps/GQ3SSVvMbmA2"
"North West";"Vryburg-Vryburg";"Vryburg";"Normal";"Unknown";"-26,958667";"24,73028";"121 Market Sreet, Vryburg, 8600, NW";"https://goo.gl/maps/51xQqJWbwRn"
"North West";"Zeerust-Zeerust";"Zeerust";"Boxer";"Unknown";"-25,54564";"26,0737513";"12 Church Street, Zeerust, North West";"https://goo.gl/hw3PnQ"
"Northen Cape";"Kimberley-Kimberley";"Kimberley";"Normal";"Unknown";"-28,74323";"24,7587513";"6 Long Street, Kimberley, 8300, NC";"https://goo.gl/FCfNm5"
"Northen Cape";"Upington-Upington";"Upington";"Normal";"Unknown";"-28,4548888";"21,2464815";"Shop 1 Upington Properties, 11 Lutz street, Upington, 8801, NC";"https://goo.gl/umpCFq"
"Western Cape";"Cape Town-Bellstar Junction";"Bellstar Junction";"Normal";"Unknown";"-33,9057939";"18,6287661";"Shop 33C, Bellstar Junction, Bellville station, South Street, Cape Town, 7530, WC";"https://goo.gl/maps/tGTS7CgUjqB2"
"Western Cape";"Cape Town-Gugulethu Square";"Gugulethu Square";"Normal";"Unknown";"-33,9862473";"18,5663938";"Gugulethu Square, Cnr NY1 & NY6, Guguletu, Cape Town, WC";"https://goo.gl/maps/VhKPA4W8sX82"
"Western Cape";"Cape Town-Langa Junction";"Cape Town";"Normal";"Unknown";"-33,940446";"18,530212";"Langa Junction, Erf 4330, Brinton Street, Langa, Cape Town, 7100, WC";"https://goo.gl/maps/noiVj5F2xNt"
"Western Cape";"Cape Town-Makhaza Mall";"Makhaza Mall";"Normal";"Unknown";"-34,046634";"18,702814";"Shop 4, Makhaza Shopping Centre, Lansdown Rd, Khayalitsha, Cape Town, 7784, WC";"https://goo.gl/maps/RTozeZtQqku"
"Western Cape";"Cape Town-Mitchells Plain";"Mitchells Plain";"Boxer";"Unknown";"-34,0492894";"18,6197276";"14 Symphony Walk Town Centre Mitchells Plain";"https://goo.gl/aAdXeA"
"Western Cape";"Cape Town-Philippi";"Philippi";"Normal";"Unknown";"-34,00059";"18,594346";"Shop xx, Shoprite Centre, Govan Mbeki Rd, Philippi, Cape Town, 7750, WC";"https://goo.gl/maps/xtcnGoKLMgs"
"Western Cape";"Cape Town-St Georges Mall";"St Georges Mall";"Normal";"Unknown";"-33,920448";"18,423689";"African Bank Space, 8 St George's Mall, cnr of Van Riebeeck & St Georges Street, Cape Town, 8000, WC";"https://goo.gl/maps/o3pvdrroJrm"
"Western Cape";"Cape Town-Worcester";"Worcester";"Boxer";"Unknown";"-33,6469872";"19,4368011";"CNR High & Napier Street Worcester Cape Town";"https://goo.gl/xteWdp"
"Western Cape";"Kenilworth-Access Park";"Access Park";"Normal";"Unknown";"-33,9878269";"18,4855653";"Unit D1 Access Park, 81 Chichester Rd, Kenilworth, Cape Town, 7708, WC";"https://goo.gl/hV4kPW"
